UMKA 1 (RS40S)          
1 57172U 23091G   24364.93226118  .00013494  00000+0  78456-3 0  9991
2 57172  97.5855  55.2843 0015744 166.1602 194.0063 15.12093168 83025
CUBESX-HSE 3 (RS42S)    
1 57178U 23091N   24364.92616029  .00020785  00000+0  10951-2 0  9996
2 57178  97.5884  56.4702 0015661 158.9764 201.2116 15.15517809 83088
MONITOR-3 (RS58S)       
1 57180U 23091Q   24365.40194902  .00018025  00000+0  97789-3 0  9993
2 57180  97.5880  56.5613 0016168 158.2071 201.9852 15.14501344 83132
MONITOR-4 (RS57S)       
1 57182U 23091S   24365.40201818  .00018153  00000+0  98474-3 0  9994
2 57182  97.5874  56.5224 0016177 158.8354 201.3550 15.14504655 83132
MONITOR-2 (RS39S)       
1 57184U 23091U   24365.38225728  .00011748  00000+0  69360-3 0  9994
2 57184  97.5878  56.1311 0013716 154.4615 205.7295 15.11599051 83101
SVYATOBOR 1 (RS60S)     
1 57187U 23091X   24365.37601267  .00018049  00000+0  97323-3 0  9993
2 57187  97.5881  57.2213 0012858 149.3915 210.8070 15.14760325 83175
VIZARD-METEO (RS38S)    
1 57189U 23091Z   24365.39605887  .00021734  00000+0  10773-2 0  9997
2 57189  97.5870  58.2134 0011674 144.6102 215.5909 15.17702994 83241
NANOZOND 1 (RS49S)      
1 57190U 23091AA  24365.38352336  .00039662  00000+0  16169-2 0  9990
2 57190  97.5837  59.8816 0009314 144.5593 215.6264 15.24300338 83363
POLYTECH-UNIVERSE 3 (R*)
1 57191U 23091AB  24365.38812893  .00011337  00000+0  66779-3 0  9992
2 57191  97.5847  55.7343 0018302 171.9582 188.1945 15.11629154 83090
UTMN 2 (RS27S)          
1 57203U 23091AP  24365.41687011  .00020210  00000+0  10333-2 0  9996
2 57203  97.5874  57.8746 0012140 145.2400 214.9628 15.16625224 83221
ARCCUBE 1 (RS25S)       
1 57205U 23091AR  24365.41105051  .00050881  00000+0  18448-2 0  9999
2 57205  97.5782  60.5711 0008845 143.6151 216.5691 15.28142973 83424
KUZGTU 1 (RS47S)        
1 57217U 23091AV  24364.89947891  .00020869  00000+0  11110-2 0  9991
2 57217  97.5862  56.1736 0015555 160.7374 199.4449 15.15150709 83070
SONATE-2                
1 59112U 24043Q   24364.29654302  .00026798  00000+0  99488-3 0  9993
2 59112  97.4956 127.4304 0012265 334.1002  25.9622 15.27477109 45491
MESAT1                  
1 60209U 24125G   24364.86358538  .00032359  00000+0  11872-2 0  9998
2 60209  97.2966 213.0135 0023066 359.3429   0.7776 15.27642478 27197
OOV-CUBE (TUBSAT-30)    
1 60240U 24128F   24364.81991798  .00007390  00000+0  62322-3 0  9996
2 60240  61.9983 283.5279 0031662  14.2270 345.9704 14.98575222 25903
COLIBRI-S (RS67S)       
1 61746U 24199M   24365.34756474  .00024616  00000+0  94993-3 0  9994
2 61746  97.3802 229.4117 0015662  40.8909 319.3501 15.26165648 55445
HORS 3 (RS81S)          
1 61753U 24199U   24365.34962131  .00027867  00000+0  10726-2 0  9993
2 61753  97.3776 229.3908 0014308  47.8830 312.3622 15.26245658 55443
HORS 4 (RS82S)          
1 61754U 24199V   24365.40952948  .00030358  00000+0  11584-2 0  9998
2 61754  97.3774 229.4623 0014516  47.5537 312.6927 15.26512242 55457
HORIZON (RS59S)         
1 61757U 24199Y   24365.39532152  .00037279  00000+0  13942-2 0  9999
2 61757  97.3801 229.4988 0015540  38.3095 321.9244 15.27119134 55459
SIT-2086                
1 61764U 24199AF  24364.93054345  .00032745  00000+0  12269-2 0  9993
2 61764  97.3777 229.0367 0012754  49.8354 310.4000 15.27123234 52226
MORDOVIA-IOT (RS50S)    
1 61765U 24199AG  24365.37137415  .00044863  00000+0  16234-2 0  9993
2 61765  97.3802 229.5309 0015329  35.6605 324.5655 15.28165384 52304
RUZAEVKA 390 (RS44S)    
1 61766U 24199AH  24365.37353936  .00041809  00000+0  15223-2 0  9996
2 61766  97.3801 229.5255 0015082  35.4036 324.8201 15.27982116 52305
HYPERVIEW 1G (RS66S)    
1 61772U 24199AP  24364.90923336  .00036653  00000+0  14166-2 0  9994
2 61772  97.3777 228.9116 0018492  50.7294 309.5582 15.25983907 52227
ALTAIR (RS65S)          
1 61779U 24199AW  24365.39471193  .00017311  00000+0  70079-3 0  9990
2 61779  97.3782 229.3329 0018718  50.6563 309.6329 15.24588995 55444
ASRTU-1 (AO-123)        
1 61781U 24199AY  24365.40153106  .00018565  00000+0  75614-3 0  9998
2 61781  97.3781 229.3248 0018918  50.7221 309.5691 15.24366555 52297
TUSUR GO (RS78S)        
1 61782U 24199AZ  24365.38076126  .00035931  00000+0  14015-2 0  9995
2 61782  97.3776 229.3500 0019727  48.6670 311.6261 15.25660612 52295
SAMSAT-IONOSPHERE (RS7*)
1 61784U 24199BB  24365.38509121  .00029718  00000+0  11713-2 0  9991
2 61784  97.3776 229.3438 0019480  49.4612 310.8319 15.25358015 55444
RTU MIREA 1 (RS51S)     
1 61785U 24199BC  24365.38379990  .00031256  00000+0  12289-2 0  9990
2 61785  97.3776 229.3456 0019363  48.9320 311.3587 15.25431722 52295
NOAA 15                 
1 25338U 98030A   24365.32237959  .00000603  00000+0  26634-3 0  9993
2 25338  98.5516  28.2115 0011279 109.6283 250.6116 14.26840760385404
NOAA 18                 
1 28654U 05018A   24365.37729126  .00000647  00000+0  36712-3 0  9994
2 28654  98.8591  80.5850 0013645 223.9885 136.0203 14.13469364 10972
NOAA 19                 
1 33591U 09005A   24365.42855653  .00000567  00000+0  32658-3 0  9997
2 33591  99.0222  63.0689 0014693  98.8899 261.3937 14.13244264819340
METOP-B                 
1 38771U 12049A   24365.34431785  .00000510  00000+0  25310-3 0  9996
2 38771  98.6036  57.9038 0001854 100.8742 259.2645 14.21396634637415
SARAL                   
1 39086U 13009A   24364.93169169  .00000449  00000+0  18144-3 0  9999
2 39086  98.5483 187.3972 0002908  75.1938 284.9568 14.32619703619109
METOP-C                 
1 43689U 18087A   24365.38487391  .00000503  00000+0  24964-3 0  9992
2 43689  98.6991  62.1068 0000659 192.7841 167.3319 14.21506902318999
ANGELS                  
1 44876U 19092D   24364.80425513  .00037048  00000+0  11529-2 0  9998
2 44876  97.4624 194.3341 0008964 356.7542   3.3641 15.33170025279267
OTB-3-GAZELLE           
1 54023U 22127A   24364.83359694  .00000603  00000+0  19536-3 0  9999
2 54023  98.3565 354.9799 0013378   6.3791 353.7566 14.42360521117323
EOS-6 (OCEANSAT-3)      
1 54361U 22158A   24365.40116660  .00001381  00000+0  39170-3 0  9996
2 54361  98.3538  99.8076 0001228 109.3690 250.7636 14.47013020110640
BEIDOU-2 IGSO-1 (C06)   
1 36828U 10036A   24365.25614958 -.00000055  00000+0  00000+0 0  9996
2 36828  54.2649 167.7886 0043436 205.9996 285.1359  1.00273971 52877
BEIDOU-2 G4 (C04)       
1 37210U 10057A   24364.84823681 -.00000088  00000+0  00000+0 0  9990
2 37210   2.3211  70.3016 0009207 190.1665 303.7095  1.00271440 51920
BEIDOU-2 IGSO-2 (C07)   
1 37256U 10068A   24364.56524059 -.00000184  00000+0  00000+0 0  9995
2 37256  48.5203 278.4360 0039608 215.9979 274.5161  1.00290799 51431
BEIDOU-2 IGSO-3 (C08)   
1 37384U 11013A   24364.57740579 -.00000160  00000+0  00000+0 0  9990
2 37384  61.6355  45.2320 0030602 184.1587 182.9554  1.00260085 50308
BEIDOU-2 IGSO-4 (C09)   
1 37763U 11038A   24363.92896541  .00000070  00000+0  00000+0 0  9996
2 37763  54.5704 170.4539 0131086 228.4500 129.3815  1.00267054 49278
BEIDOU-2 IGSO-5 (C10)   
1 37948U 11073A   24361.74771541 -.00000174  00000+0  00000+0 0  9996
2 37948  48.6612 278.1671 0101758 221.1444 320.4052  1.00289247 48014
BEIDOU-2 G5 (C05)       
1 38091U 12008A   24365.11388758  .00000081  00000+0  00000+0 0  9990
2 38091   2.2425  71.1102 0012702 231.6761 255.9926  1.00269338 47122
BEIDOU-2 M3 (C11)       
1 38250U 12018A   24363.30917489 -.00000078  00000+0  00000+0 0  9993
2 38250  56.2006 322.8685 0024804 270.2047  89.5023  1.86233686 85961
BEIDOU-2 M4 (C12)       
1 38251U 12018B   24364.31383341 -.00000072  00000+0  00000+0 0  9994
2 38251  56.1051 322.0920 0015721 274.3799  85.4319  1.86232112 86330
BEIDOU-2 M6 (C14)       
1 38775U 12050B   24364.56060359 -.00000035  00000+0  00000+0 0  9998
2 38775  56.0746  80.6420 0011618 336.1897  23.7900  1.86230959 83706
BEIDOU-2 G6 (C02)       
1 38953U 12059A   24364.90462227 -.00000152  00000+0  00000+0 0  9993
2 38953   3.0597  78.9186 0008231 289.8126 139.7116  1.00274546 44558
BEIDOU-3S IGSO-1S (C31) 
1 40549U 15019A   24364.77640711 -.00000175  00000+0  00000+0 0  9992
2 40549  50.2096 301.8743 0034186 198.2946 333.3630  1.00260774 35717
BEIDOU-3S M2S (C58)     
1 40748U 15037A   24363.44095328 -.00000077  00000+0  00000+0 0  9995
2 40748  55.3317 320.4199 0012192 266.1211  93.7313  1.86229094 64143
BEIDOU-3S M1S (C57)     
1 40749U 15037B   24364.25144832 -.00000073  00000+0  00000+0 0  9997
2 40749  55.3338 320.3790 0004583 330.5681  29.3982  1.86227591 64164
BEIDOU-3S IGSO-2S (C56) 
1 40938U 15053A   24364.68799604 -.00000097  00000+0  00000+0 0  9991
2 40938  50.0519 265.1182 0051299 188.3817 348.1869  1.00261397 33995
BEIDOU-2 IGSO-6 (C13)   
1 41434U 16021A   24363.41586188 -.00000150  00000+0  00000+0 0  9990
2 41434  59.4626  43.3948 0055522 227.3145  73.3729  1.00277371 32109
BEIDOU-2 G7 (C03)       
1 41586U 16037A   24364.90983512 -.00000330  00000+0  00000+0 0  9992
2 41586   1.8484  67.6779 0008006 343.1184 126.1483  1.00272027  1536
BEIDOU-3 M1 (C19)       
1 43001U 17069A   24364.32642220 -.00000037  00000+0  00000+0 0  9990
2 43001  56.2234  80.7721 0009780 296.2879  63.6437  1.86231264 48648
BEIDOU-3 M2 (C20)       
1 43002U 17069B   24364.80102460 -.00000033  00000+0  00000+0 0  9997
2 43002  56.2233  80.7918 0007058 320.2927  39.6902  1.86230934 48647
BEIDOU-3 M7 (C27)       
1 43107U 18003A   24364.54828178 -.00000072  00000+0  00000+0 0  9997
2 43107  54.7894 320.8873 0003030  53.7221 306.2986  1.86232389 47390
BEIDOU-3 M8 (C28)       
1 43108U 18003B   24364.49033571 -.00000072  00000+0  00000+0 0  9997
2 43108  54.7824 320.8738 0004757 275.6243  84.3141  1.86230795 47408
BEIDOU-3 M4 (C22)       
1 43207U 18018A   24364.39455807 -.00000037  00000+0  00000+0 0  9993
2 43207  56.1824  80.8522 0004092 351.6931   8.3323  1.86231180 46786
